ONEWEB-0340             
1 49206U 21083W   26003.93737980 -.00000184  00000+0 -49937-3 0  9991
2 49206  87.9177   8.0656 0001803  90.6959 269.4380 13.18686367208323
ONEWEB-0341             
1 49207U 21083X   26003.94397788  .00000009  00000+0 -87433-5 0  9991
2 49207  87.9173   8.0752 0001377 103.6936 256.4349 13.18684185208342
ONEWEB-0342             
1 49208U 21083Y   26003.88287785 -.00000165  00000+0 -43728-3 0  9991
2 49208  87.9226 307.2080 0001670  72.3675 287.7641 13.20770998215091
ONEWEB-0343             
1 49209U 21083Z   26003.95223121 -.00000041  00000+0 -13795-3 0  9998
2 49209  87.9175   8.0666 0001190  90.6450 269.4819 13.18686278208395
ONEWEB-0344             
1 49210U 21083AA  26003.95713944  .00000325  00000+0  85604-3 0  9998
2 49210  87.8974 352.8998 0001420  96.1451 263.9840 13.13468464209337
ONEWEB-0345             
1 49211U 21083AB  26003.94867558  .00000366  00000+0  96760-3 0  9999
2 49211  87.8982 352.8628 0001433  95.4065 264.7228 13.13470533209344
ONEWEB-0346             
1 49212U 21083AC  26003.94894521  .00000085  00000+0  18225-3 0  9998
2 49212  87.9168   8.0808 0002308  96.9016 263.2379 13.18685488208337
ONEWEB-0348             
1 49213U 21083AD  26003.87340838 -.00000064  00000+0 -18916-3 0  9994
2 49213  87.9222 307.2142 0001803  96.2274 263.9065 13.20771497215125
